*******************************************************************************
Ephemeris / WWW_USER Thu May 23 17:16:06 2024 Pasadena, USA      / Horizons    
*******************************************************************************
Target body name: (2018 RA1)                      {source: JPL#6}
Center body name: Earth (399)                     {source: DE441}
Center-site name: Gemini South Obs., Cerro Pachon
*******************************************************************************
Start time      : A.D. 2018-Sep-09 22:40:00.0000 UT      
Stop  time      : A.D. 2018-Sep-10 10:39:00.0000 UT      
Step-size       : 1 minutes
*******************************************************************************
Target pole/equ : undefined
Target radii    : undefined                                                    
Center geodetic : 289.2634, -30.2406227, 2.71233  {E-lon(deg),Lat(deg),Alt(km)}
Center cylindric: 289.2634,5517.21435,-3194.81213 {E-lon(deg),Dxy(km),Dz(km)}
Center pole/equ : ITRF93                          {East-longitude positive}
Center radii    : 6378.137, 6378.137, 6356.752 km {Equator_a, b, pole_c}       
Target primary  : Sun
Vis. interferer : MOON (R_eq= 1737.400) km        {source: DE441}
Rel. light bend : Sun                             {source: DE441}
Rel. lght bnd GM: 1.3271E+11 km^3/s^2                                          
Small-body perts: Yes                             {source: SB441-N16}
Atmos refraction: NO (AIRLESS)
RA format       : HMS
Time format     : CAL 
Calendar mode   : Mixed Julian/Gregorian
RTS-only print  : NO       
EOP file        : eop.240523.p240816                                           
EOP coverage    : DATA-BASED 1962-JAN-20 TO 2024-MAY-23. PREDICTS-> 2024-AUG-15
Units conversion: 1 au= 149597870.700 km, c= 299792.458 km/s, 1 day= 86400.0 s 
Table cut-offs 1: Elevation (-90.0deg=NO ),Airmass (>38.000=NO), Daylight (YES)
Table cut-offs 2: Solar elongation (  0.0,180.0=NO ),Local Hour Angle( 0.0=NO )
Table cut-offs 3: RA/DEC angular rate (     0.0=NO )                           
*******************************************************************************
Initial IAU76/J2000 heliocentric ecliptic osculating elements (au, days, deg.):
  EPOCH=  2458369.5 ! 2018-Sep-08.00 (TDB)         Residual RMS= .21275        
   EC= .3232115344739424   QR= .7703453101153647   TP= 2458436.6763547547      
   OM= 166.2054176892707   W=  269.7217787981747   IN= 8.763099478405824       
  Equivalent ICRF heliocentric cartesian coordinates (au, au/d):
   X= 9.899686155013647E-01  Y=-2.468208982240139E-01  Z=-1.030323866474361E-01
  VX=-9.411283005844916E-04 VY= 1.717513364149167E-02 VZ= 4.613440841260365E-03
Asteroid physical parameters (km, seconds, rotational period in hours):        
   GM= n.a.                RAD= n.a.               ROTPER= n.a.                
   H= 26.4                 G= .150                 B-V= n.a.                   
                           ALBEDO= n.a.            STYP= n.a.                  
*******************************************************************************
 Date__(UT)__HR:MN     R.A._________(ICRF)_________DEC
******************************************************
$$SOE
 2018-Sep-10 00:43     21 38 58.295792 -26 03 30.47944
 2018-Sep-10 00:44     21 38 56.353079 -26 04 42.54156
 2018-Sep-10 00:45     21 38 54.407629 -26 05 54.64439
 2018-Sep-10 00:46     21 38 52.459444 -26 07 06.78791
 2018-Sep-10 00:47     21 38 50.508525 -26 08 18.97210
 2018-Sep-10 00:48     21 38 48.554873 -26 09 31.19695
 2018-Sep-10 00:49     21 38 46.598488 -26 10 43.46243
 2018-Sep-10 00:50     21 38 44.639372 -26 11 55.76854
 2018-Sep-10 00:51     21 38 42.677526 -26 13 08.11524
 2018-Sep-10 00:52     21 38 40.712951 -26 14 20.50254
 2018-Sep-10 00:53     21 38 38.745648 -26 15 32.93040
 2018-Sep-10 00:54     21 38 36.775619 -26 16 45.39881
 2018-Sep-10 00:55     21 38 34.802864 -26 17 57.90775
 2018-Sep-10 00:56     21 38 32.827385 -26 19 10.45721
 2018-Sep-10 00:57     21 38 30.849183 -26 20 23.04717
 2018-Sep-10 00:58     21 38 28.868259 -26 21 35.67760
 2018-Sep-10 00:59     21 38 26.884614 -26 22 48.34850
 2018-Sep-10 01:00     21 38 24.898250 -26 24 01.05985
 2018-Sep-10 01:01     21 38 22.909169 -26 25 13.81162
 2018-Sep-10 01:02     21 38 20.917370 -26 26 26.60381
 2018-Sep-10 01:03     21 38 18.922857 -26 27 39.43638
 2018-Sep-10 01:04     21 38 16.925629 -26 28 52.30933
 2018-Sep-10 01:05     21 38 14.925689 -26 30 05.22264
 2018-Sep-10 01:06     21 38 12.923038 -26 31 18.17629
 2018-Sep-10 01:07     21 38 10.917677 -26 32 31.17026
 2018-Sep-10 01:08     21 38 08.909608 -26 33 44.20453
 2018-Sep-10 01:09     21 38 06.898831 -26 34 57.27910
 2018-Sep-10 01:10     21 38 04.885350 -26 36 10.39393
 2018-Sep-10 01:11     21 38 02.869165 -26 37 23.54901
 2018-Sep-10 01:12     21 38 00.850277 -26 38 36.74433
 2018-Sep-10 01:13     21 37 58.828689 -26 39 49.97986
 2018-Sep-10 01:14     21 37 56.804401 -26 41 03.25560
 2018-Sep-10 01:15     21 37 54.777415 -26 42 16.57152
 2018-Sep-10 01:16     21 37 52.747734 -26 43 29.92760
 2018-Sep-10 01:17     21 37 50.715358 -26 44 43.32382
 2018-Sep-10 01:18     21 37 48.680289 -26 45 56.76018
 2018-Sep-10 01:19     21 37 46.642529 -26 47 10.23665
 2018-Sep-10 01:20     21 37 44.602079 -26 48 23.75321
 2018-Sep-10 01:21     21 37 42.558941 -26 49 37.30985
 2018-Sep-10 01:22     21 37 40.513117 -26 50 50.90654
 2018-Sep-10 01:23     21 37 38.464609 -26 52 04.54328
 2018-Sep-10 01:24     21 37 36.413418 -26 53 18.22005
 2018-Sep-10 01:25     21 37 34.359546 -26 54 31.93681
 2018-Sep-10 01:26     21 37 32.302994 -26 55 45.69357
 2018-Sep-10 01:27     21 37 30.243766 -26 56 59.49030
 2018-Sep-10 01:28     21 37 28.181861 -26 58 13.32699
 2018-Sep-10 01:29     21 37 26.117283 -26 59 27.20361
 2018-Sep-10 01:30     21 37 24.050033 -27 00 41.12015
 2018-Sep-10 01:31     21 37 21.980113 -27 01 55.07659
 2018-Sep-10 01:32     21 37 19.907524 -27 03 09.07292
 2018-Sep-10 01:33     21 37 17.832269 -27 04 23.10912
 2018-Sep-10 01:34     21 37 15.754350 -27 05 37.18516
 2018-Sep-10 01:35     21 37 13.673768 -27 06 51.30104
 2018-Sep-10 01:36     21 37 11.590526 -27 08 05.45673
 2018-Sep-10 01:37     21 37 09.504625 -27 09 19.65223
 2018-Sep-10 01:38     21 37 07.416068 -27 10 33.88750
 2018-Sep-10 01:39     21 37 05.324855 -27 11 48.16254
 2018-Sep-10 01:40     21 37 03.230991 -27 13 02.47732
 2018-Sep-10 01:41     21 37 01.134475 -27 14 16.83184
 2018-Sep-10 01:42     21 36 59.035312 -27 15 31.22606
 2018-Sep-10 01:43     21 36 56.933501 -27 16 45.65998
 2018-Sep-10 01:44     21 36 54.829047 -27 18 00.13359
 2018-Sep-10 01:45     21 36 52.721950 -27 19 14.64685
 2018-Sep-10 01:46     21 36 50.612213 -27 20 29.19976
 2018-Sep-10 01:47     21 36 48.499838 -27 21 43.79229
 2018-Sep-10 01:48     21 36 46.384827 -27 22 58.42444
 2018-Sep-10 01:49     21 36 44.267182 -27 24 13.09618
 2018-Sep-10 01:50     21 36 42.146906 -27 25 27.80749
 2018-Sep-10 01:51     21 36 40.024001 -27 26 42.55837
 2018-Sep-10 01:52     21 36 37.898468 -27 27 57.34879
 2018-Sep-10 01:53     21 36 35.770311 -27 29 12.17874
 2018-Sep-10 01:54     21 36 33.639530 -27 30 27.04819
 2018-Sep-10 01:55     21 36 31.506130 -27 31 41.95714
 2018-Sep-10 01:56     21 36 29.370111 -27 32 56.90557
 2018-Sep-10 01:57     21 36 27.231477 -27 34 11.89346
 2018-Sep-10 01:58     21 36 25.090228 -27 35 26.92079
 2018-Sep-10 01:59     21 36 22.946369 -27 36 41.98755
 2018-Sep-10 02:00     21 36 20.799901 -27 37 57.09372
 2018-Sep-10 02:01     21 36 18.650826 -27 39 12.23929
 2018-Sep-10 02:02     21 36 16.499148 -27 40 27.42423
 2018-Sep-10 02:03     21 36 14.344867 -27 41 42.64854
 2018-Sep-10 02:04     21 36 12.187987 -27 42 57.91219
 2018-Sep-10 02:05     21 36 10.028510 -27 44 13.21517
 2018-Sep-10 02:06     21 36 07.866439 -27 45 28.55747
 2018-Sep-10 02:07     21 36 05.701775 -27 46 43.93906
 2018-Sep-10 02:08     21 36 03.534522 -27 47 59.35994
 2018-Sep-10 02:09     21 36 01.364682 -27 49 14.82008
 2018-Sep-10 02:10     21 35 59.192257 -27 50 30.31947
 2018-Sep-10 02:11     21 35 57.017250 -27 51 45.85809
 2018-Sep-10 02:12     21 35 54.839663 -27 53 01.43593
 2018-Sep-10 02:13     21 35 52.659499 -27 54 17.05298
 2018-Sep-10 02:14     21 35 50.476760 -27 55 32.70921
 2018-Sep-10 02:15     21 35 48.291450 -27 56 48.40461
 2018-Sep-10 02:16     21 35 46.103570 -27 58 04.13917
 2018-Sep-10 02:17     21 35 43.913123 -27 59 19.91286
 2018-Sep-10 02:18     21 35 41.720112 -28 00 35.72569
 2018-Sep-10 02:19     21 35 39.524539 -28 01 51.57762
 2018-Sep-10 02:20     21 35 37.326407 -28 03 07.46864
 2018-Sep-10 02:21     21 35 35.125718 -28 04 23.39875
 2018-Sep-10 02:22     21 35 32.922476 -28 05 39.36792
 2018-Sep-10 02:23     21 35 30.716683 -28 06 55.37613
 2018-Sep-10 02:24     21 35 28.508341 -28 08 11.42338
 2018-Sep-10 02:25     21 35 26.297453 -28 09 27.50965
 2018-Sep-10 02:26     21 35 24.084023 -28 10 43.63493
 2018-Sep-10 02:27     21 35 21.868052 -28 11 59.79919
 2018-Sep-10 02:28     21 35 19.649543 -28 13 16.00242
 2018-Sep-10 02:29     21 35 17.428500 -28 14 32.24462
 2018-Sep-10 02:30     21 35 15.204925 -28 15 48.52576
 2018-Sep-10 02:31     21 35 12.978820 -28 17 04.84583
 2018-Sep-10 02:32     21 35 10.750188 -28 18 21.20482
 2018-Sep-10 02:33     21 35 08.519033 -28 19 37.60270
 2018-Sep-10 02:34     21 35 06.285357 -28 20 54.03948
 2018-Sep-10 02:35     21 35 04.049163 -28 22 10.51513
 2018-Sep-10 02:36     21 35 01.810453 -28 23 27.02963
 2018-Sep-10 02:37     21 34 59.569231 -28 24 43.58299
 2018-Sep-10 02:38     21 34 57.325499 -28 26 00.17517
 2018-Sep-10 02:39     21 34 55.079260 -28 27 16.80617
 2018-Sep-10 02:40     21 34 52.830518 -28 28 33.47597
 2018-Sep-10 02:41     21 34 50.579274 -28 29 50.18456
 2018-Sep-10 02:42     21 34 48.325532 -28 31 06.93193
 2018-Sep-10 02:43     21 34 46.069295 -28 32 23.71806
 2018-Sep-10 02:44     21 34 43.810566 -28 33 40.54294
 2018-Sep-10 02:45     21 34 41.549347 -28 34 57.40656
